AMC-3                   
1 24936U 97050A   24303.83639987 -.00000247  00000+0  00000+0 0  9992
2 24936   6.6792  70.7126 0003023 166.4673  30.5969  1.00271310 46467
ASTRA 2A                
1 25462U 98050A   24304.00506875  .00000082  00000+0  00000+0 0  9993
2 25462   5.5867  75.8788 0002981 145.2785 236.6990  1.00271489 95772
NSS-11                  
1 26554U 00059A   24304.22359708  .00000038  00000+0  00000+0 0  9994
2 26554   0.5797  87.9158 0002955 125.0156  82.6188  1.00272999 88201
AMC-6                   
1 26580U 00067A   24304.10912802  .00000116  00000+0  00000+0 0  9996
2 26580   0.0718  76.0648 0001734 126.0737  97.0869  1.00272934 88015
AMC-11                  
1 28252U 04017A   24303.61423275 -.00000040  00000+0  00000+0 0  9996
2 28252   0.0556  66.6358 0002473 161.0757 280.7638  1.00271335 74900
AMC-15                  
1 28446U 04041A   24303.90133347 -.00000077  00000+0  00000+0 0  9998
2 28446   0.0240  68.9517 0002286 143.1166  46.0763  1.00269700 73346
NSS-10                  
1 28526U 05003A   24303.77184769 -.00000237  00000+0  00000+0 0  9993
2 28526   4.9551  77.5830 0002738 149.2588  52.1802  1.00271550 47185
ASTRA 1KR               
1 29055U 06012A   24303.28263458  .00000128  00000+0  00000+0 0  9999
2 29055   0.0129 318.8045 0005467 272.6329 287.6217  1.00273462 39748
ASTRA 1L                
1 31306U 07016A   24303.99751014  .00000131  00000+0  00000+0 0  9998
2 31306   0.0618  77.1420 0004816 109.9159 230.0756  1.00269984 64073
ASTRA 4A                
1 32299U 07057A   24303.92322734  .00000044  00000+0  00000+0 0  9994
2 32299   0.0610  64.1723 0002894 155.4810 156.2820  1.00272706 45675
AMC-21                  
1 33275U 08038B   24303.89742385  .00000048  00000+0  00000+0 0  9997
2 33275   1.4039  87.9195 0003138 138.5168  10.4706  1.00273322 59524
ASTRA 1M                
1 33436U 08057A   24302.56654407  .00000109  00000+0  00000+0 0  9995
2 33436   0.0737  20.7427 0005661 204.1103  32.5310  1.00274510 39757
NSS-9                   
1 33749U 09008A   24303.62833490  .00000082  00000+0  00000+0 0  9998
2 33749   0.0273 356.6157 0002026 223.5928 227.5321  1.00274626 57545
SES-7 (PROTOSTAR 2)     
1 34941U 09027A   24303.69364030 -.00000336  00000+0  00000+0 0  9993
2 34941   0.1008  79.0800 0002180 186.7826 130.6281  1.00270584 56655
NSS-12                  
1 36032U 09058A   24303.93347924  .00000081  00000+0  00000+0 0  9996
2 36032   0.0836  77.8908 0003792 150.5244 203.4085  1.00273358 54947
SES-1                   
1 36516U 10016A   24303.97370490 -.00000104  00000+0  00000+0 0  9994
2 36516   0.0292  12.6628 0002763 213.3670  62.3230  1.00272142 53161
ASTRA 3B                
1 36581U 10021A   24303.99794454  .00000148  00000+0  00000+0 0  9991
2 36581   0.0169  95.6182 0002985 113.6302 212.3340  1.00271922 52682
SES-3                   
1 37748U 11035A   24303.61579661 -.00000093  00000+0  00000+0 0  9993
2 37748   0.0346  13.9884 0003078 226.2151 276.9493  1.00276910 48620
ASTRA 1N                
1 37775U 11041A   24303.40604809  .00000128  00000+0  00000+0 0  9998
2 37775   0.0907  54.3287 0000629 173.7306 335.5666  1.00272215 38555
SES-2                   
1 37809U 11049A   24303.90498247 -.00000185  00000+0  00000+0 0  9990
2 37809   0.0279 292.2527 0002424 292.4636  52.8100  1.00269908 47990
QUETZSAT 1              
1 37826U 11054A   24303.40650160 -.00000233  00000+0  00000+0 0  9998
2 37826   0.0587  71.2075 0002585 169.4361 226.9554  1.00271271 43911
SES-4                   
1 38087U 12007A   24303.63178262 -.00000158  00000+0  00000+0 0  9996
2 38087   0.0175  64.7449 0002508 164.8788  14.2991  1.00272461 46258
SES-5                   
1 38652U 12036A   24303.56575347  .00000043  00000+0  00000+0 0  9995
2 38652   0.0640 295.1571 0002130 287.7421  24.1628  1.00272990 38502
ASTRA 2F                
1 38778U 12051A   24303.14150208  .00000157  00000+0  00000+0 0  9996
2 38778   0.0346 242.1708 0004489 345.9091 249.0484  1.00273688 35169
SES-6                   
1 39172U 13026A   24303.91419178 -.00000250  00000+0  00000+0 0  9992
2 39172   0.0378  24.9770 0001999 201.5241 100.8646  1.00272646 41754
O3B FM5                 
1 39188U 13031A   24303.40406182 -.00000022  00000+0  00000+0 0  9997
2 39188   0.0680 356.7346 0002539 222.0434 141.2098  5.00115205207233
O3B FM4                 
1 39189U 13031B   24303.65944997 -.00000021  00000+0  00000+0 0  9995
2 39189   0.0403 356.6553 0002513 221.8542 141.4789  5.00115114207266
O3B FM2                 
1 39190U 13031C   24303.35148362 -.00000022  00000+0  00000+0 0  9997
2 39190   0.0354 354.8447 0002553 225.4746 139.6678  5.00115660207302
O3B PFM                 
1 39191U 13031D   24299.37898674 -.00000029  00000+0  00000+0 0  9999
2 39191   0.0593 358.4064 0002636 218.3639 143.2156  5.00115019206654
ASTRA 2E                
1 39285U 13056A   24303.92791889  .00000161  00000+0  00000+0 0  9993
2 39285   0.0824 313.8311 0002968 264.5989 182.8884  1.00271801 40453
SES-8                   
1 39460U 13071A   24303.94112472 -.00000259  00000+0  00000+0 0  9991
2 39460   0.0215 264.9184 0001004 288.4264 279.2193  1.00272905 38465
ASTRA 5B                
1 39617U 14011B   24303.64099194  .00000146  00000+0  00000+0 0  9996
2 39617   0.0664 310.5551 0003704 282.6717  59.5028  1.00271590 38691
O3B FM3                 
1 40079U 14038A   24303.83144291 -.00000021  00000+0  00000+0 0  9992
2 40079   0.0480 355.9799 0005081 230.0974 133.8871  5.00114778188359
O3B FM7                 
1 40080U 14038B   24302.37847047 -.00000024  00000+0  00000+0 0  9994
2 40080   0.0453 351.4786 0000753 228.7642 139.7570  5.00115182188019
O3B FM6                 
1 40081U 14038C   24303.40508885 -.00000022  00000+0  00000+0 0  9992
2 40081   0.0472 356.8565 0002665 223.7108 139.4190  5.00115519188021
O3B FM8                 
1 40082U 14038D   24303.45857322 -.00000022  00000+0  00000+0 0  9991
2 40082   0.0467 355.7878 0002724 220.0903 144.1098  5.00115591188143
O3B FM10                
1 40348U 14083A   24302.08575688 -.00000025  00000+0  00000+0 0  9999
2 40348   0.0552   1.5690 0002626 216.6393 141.7782  5.00115721180023
O3B FM11                
1 40349U 14083B   24302.29886547 -.00000025  00000+0  00000+0 0  9992
2 40349   0.0563 356.7966 0002054 231.5038 131.6874  5.00115658180056
O3B FM12                
1 40350U 14083C   24302.12625965 -.00000025  00000+0  00000+0 0  9991
2 40350   0.0554 357.2448 0002614 224.2234 138.5172  5.00115714180058
O3B FM9                 
1 40351U 14083D   24302.35279142 -.00000024  00000+0  00000+0 0  9998
2 40351   0.0570 355.7261 0002575 222.7152 141.5456  5.00115366180211
ASTRA 2G                
1 40364U 14089A   24303.92783201  .00000160  00000+0  00000+0 0  9998
2 40364   0.0561  40.5695 0001056  41.1804 319.2148  1.00272698 35999
SES-9                   
1 41380U 16013A   24304.01523376 -.00000334  00000+0  00000+0 0  9996
2 41380   0.0176 291.3007 0001099 217.3390   3.9968  1.00271813 31785
SES-10                  
1 42432U 17017A   24303.90897896 -.00000262  00000+0  00000+0 0  9998
2 42432   0.0386  40.4913 0002766 181.4115  77.1874  1.00273126 27754
SES-15                  
1 42709U 17026A   24298.67737145  .00000052  00000+0  00000+0 0  9998
2 42709   0.0433  46.2262 0001069 177.2440 284.8178  1.00274484  1422
SES-11 (ECHOSTAR 105)   
1 42967U 17063A   24304.21137087 -.00000078  00000+0  00000+0 0  9991
2 42967   0.0183 335.2635 0002819 253.7954 141.1322  1.00272408 25841
SES-14                  
1 43175U 18012B   24297.83999284 -.00000286  00000+0  00000+0 0  9993
2 43175   0.0185 323.5516 0001138 258.8098  65.2934  1.00271307    15
O3B FM15                
1 43231U 18024A   24300.42039902 -.00000028  00000+0  00000+0 0  9995
2 43231   0.0551   5.2445 0002831 215.4628 139.2758  5.00115036121075
O3B FM16                
1 43232U 18024B   24300.47305153 -.00000028  00000+0  00000+0 0  9995
2 43232   0.0562   9.5020 0002772 211.1173 139.3643  5.00115413120999
O3B FM14                
1 43233U 18024C   24294.11697681 -.00000023  00000+0  00000+0 0  9994
2 43233   0.0548  10.5883 0002762 197.9532 151.4488  5.00114922120684
O3B FM13                
1 43234U 18024D   24294.57009524 -.00000024  00000+0  00000+0 0  9999
2 43234   0.0583 341.1095 0003078 243.7054 135.1654  5.00115164120821
SES-12                  
1 43488U 18049A   24303.68189509 -.00000260  00000+0  00000+0 0  9994
2 43488   0.0087  63.3304 0002408 190.7319 124.9404  1.00271182 23446
O3B FM20                
1 44112U 19020A   24303.73774740 -.00000021  00000+0  00000+0 0  9997
2 44112   0.0544   1.6040 0002714 229.2972 129.0810  5.00115119101786
O3B FM19                
1 44113U 19020B   24302.96551652 -.00000023  00000+0  00000+0 0  9999
2 44113   0.0628 353.5772 0001376 205.8841 160.5392  5.00115320101610
O3B FM17                
1 44114U 19020C   24303.44503072 -.00000022  00000+0  00000+0 0  9996
2 44114   0.0411  19.3747 0002873 203.1910 137.4180  5.00114962101722
O3B FM18                
1 44115U 19020D   24302.19187052 -.00000025  00000+0  00000+0 0  9997
2 44115   0.0549   1.5059 0002885 218.6198 139.8583  5.00114834101783
SES-17                  
1 49332U 21095A   24301.47771139 -.00000272  00000+0  00000+0 0  9997
2 49332   0.0101 258.6468 0001583 307.7962 294.7516  1.00266694 11869
SES-22                  
1 52933U 22071A   24303.66113809  .00000114  00000+0  00000+0 0  9994
2 52933   0.0122 107.5768 0002608 140.5098 249.3956  1.00272521  1555
SES-20                  
1 53960U 22123A   24302.61441521 -.00000096  00000+0  00000+0 0  9992
2 53960   0.0346 100.7824 0001344  28.5331  26.2411  1.00271197  7555
SES-21                  
1 53961U 22123B   24302.05222919  .00000071  00000+0  00000+0 0  9991
2 53961   0.0165  46.9680 0001110 161.1294  76.6327  1.00273542  1228
O3B MPOWER F1           
1 54755U 22174A   24303.25040194 -.00000022  00000+0  00000+0 0  9992
2 54755   0.0484 346.3272 0006381 221.6113 119.0981  5.00113423 35540
O3B MPOWER F2           
1 54756U 22174B   24303.20194487 -.00000022  00000+0  00000+0 0  9993
2 54756   0.0445 346.5436 0005762 233.7269 139.6928  5.00113712 35629
SES-18                  
1 55970U 23038A   24302.97245385 -.00000094  00000+0  00000+0 0  9998
2 55970   0.0261 264.5577 0003109 341.3862  38.8601  1.00271396  6127
SES-19                  
1 55971U 23038B   24304.21534581  .00000099  00000+0  00000+0 0  9991
2 55971   0.0193 284.3730 0001614 298.8507 118.4374  1.00271196  6113
O3B MPOWER F4           
1 56367U 23059A   24302.90244340 -.00000023  00000+0  00000+0 0  9997
2 56367   0.0637 354.3133 0006016 207.3846 158.2822  5.00117039 28778
O3B MPOWER F3           
1 56368U 23059B   24303.76868822 -.00000021  00000+0  00000+0 0  9998
2 56368   0.0649 354.8104 0006165 228.1364 137.0114  5.00114923 28976
O3B MPOWER F5           
1 58346U 23175A   24303.63523049 -.00000021  00000+0  00000+0 0  9990
2 58346   0.0560  14.2004 0007441 208.6678 137.0800  5.00116900 19644
O3B MPOWER F6           
1 58347U 23175B   24303.73533511 -.00000021  00000+0  00000+0 0  9997
2 58347   0.0567   5.8772 0006249 228.8034 125.2672  5.00117293 18567
ASTRA 1P                
1 60086U 24115A   24302.88715076 -.00000191  00000+0  00000+0 0  9996
2 60086   0.4794  52.9565 0330808 191.9944 111.6081  0.99036232  1347
